{
  "norad_id": 65939,
  "name": "2025-226B",
  "history": [
    {
      "epoch": "2026-03-28T20:21:51.204384Z",
      "apogee_km": 550.2519395681402,
      "perigee_km": 522.7589064157792,
      "latitude_deg": -3.638251804408558e-05,
      "longitude_deg": 34.94908840956529,
      "height_km": 531.4524992583998,
      "semi_major_axis_km": 6914.642422991959,
      "eccentricity": 0.00198803,
      "inclination_deg": 97.6419,
      "raan_deg": 166.6755,
      "arg_perigee_deg": 54.0036,
      "mean_anomaly_deg": 306.3032,
      "mean_motion_rev_day": 15.09899956
    },
    {
      "epoch": "2026-03-29T04:19:00.317856Z",
      "apogee_km": 550.2135352693867,
      "perigee_km": 522.7735154924649,
      "latitude_deg": 1.861548890313441e-05,
      "longitude_deg": -84.33499056113791,
      "height_km": 531.2300627322426,
      "semi_major_axis_km": 6914.630525380925,
      "eccentricity": 0.0019842,
      "inclination_deg": 97.6419,
      "raan_deg": 167.006,
      "arg_perigee_deg": 52.8226,
      "mean_anomaly_deg": 307.4811,
      "mean_motion_rev_day": 15.09903853
    }
  ]
}